[{"OBJECT_NAME":"STARLINK-31466","OBJECT_ID":"2024-064Y","EPOCH":"2026-03-09T07:26:52.632960","MEAN_MOTION":15.27564482,"ECCENTRICITY":0.00018687,"INCLINATION":43.0047,"RA_OF_ASC_NODE":58.6662,"ARG_OF_PERICENTER":251.4597,"MEAN_ANOMALY":108.6052,"EPHEMERIS_TYPE":0,"CLASSIFICATION_TYPE":"U","NORAD_CAT_ID":59420,"ELEMENT_SET_NO":999,"REV_AT_EPOCH":10916,"BSTAR":0.00011377784,"MEAN_MOTION_DOT":2.868e-5,"MEAN_MOTION_DDOT":0},{"OBJECT_NAME":"FOSSASAT-2E20 (TAT-O)","OBJECT_ID":"2025-009DN","EPOCH":"2026-03-09T17:00:18.734688","MEAN_MOTION":15.2699108,"ECCENTRICITY":0.00021892,"INCLINATION":97.3231,"RA_OF_ASC_NODE":146.2859,"ARG_OF_PERICENTER":347.5575,"MEAN_ANOMALY":12.561,"EPHEMERIS_TYPE":0,"CLASSIFICATION_TYPE":"U","NORAD_CAT_ID":63003,"ELEMENT_SET_NO":999,"REV_AT_EPOCH":12131,"BSTAR":0.00061862572,"MEAN_MOTION_DOT":0.00016337,"MEAN_MOTION_DDOT":0}]
